ORBCOMM FM24            
1 25478U 98053D   25214.84929337  .00000885  00000+0  33517-3 0  9992
2 25478  45.0088  47.8363 0002792 103.9737 256.1422 14.38187556404440
ORBCOMM FM25            
1 25479U 98053E   25214.54368317  .00000954  00000+0  35811-3 0  9991
2 25479  45.0079  47.5622 0005093 115.1568 244.9809 14.38158336404415
ORBCOMM FM26            
1 25480U 98053F   25214.86372652  .00000688  00000+0  27615-3 0  9992
2 25480  45.0077  42.8403 0006775 134.3551 225.7853 14.37204933404468
ORBCOMM FM27            
1 25481U 98053G   25214.53038843  .00000961  00000+0  36012-3 0  9993
2 25481  45.0061  47.8113 0001354 109.3351 250.7644 14.38189395404341
ORBCOMM FM28            
1 25482U 98053H   25214.97882193  .00000828  00000+0  31550-3 0  9991
2 25482  45.0071 343.1198 0005918 179.0943 180.9917 14.38369231405267
ORBCOMM FM31            
1 25981U 99065B   25215.10164922  .00000573  00000+0  23750-3 0  9998
2 25981  45.0211 221.1192 0006324 274.0075  86.0050 14.37306041341723
ORBCOMM FM32            
1 25982U 99065C   25214.48380896  .00000602  00000+0  25193-3 0  9995
2 25982  45.0143 240.9351 0008658 263.4383  96.5479 14.36352312341384
